ONEWEB-0678             
1 56714U 23068E   24037.58257032 -.00000081  00000+0 -24837-3 0  9997
2 56714  87.8955  70.6545 0001970  89.9768 270.1588 13.15547219 36006
ONEWEB-0679             
1 56715U 23068F   24037.58335648  .00000013  00000+0  00000+0 0  9993
2 56715  87.9223  40.2643 0016127  50.2935  32.5199 13.31144908 39035
ONEWEB-0680             
1 56716U 23068G   24037.58142435  .00000041  00000+0  68765-4 0  9992
2 56716  87.9202  55.5120 0001016  79.8772 280.2477 13.21829273 37278
ONEWEB-0681             
1 56717U 23068H   24037.53097279  .00000092  00000+0  19046-3 0  9996
2 56717  87.9201  55.5101 0002541 120.3986 239.7400 13.21827164 37250
ONEWEB-0682             
1 56718U 23068J   24037.54007995  .00000179  00000+0  43726-3 0  9992
2 56718  87.8953  70.7123 0001346 106.5421 253.5858 13.16085454 36161
ONEWEB-0683             
1 56719U 23068K   24037.55410106 -.00002640  00000+0 -70467-2 0  9994
2 56719  87.8954  70.6790 0001465 105.9588 254.1703 13.15560108 36137
ONEWEB-0684             
1 56720U 23068L   24037.56199173 -.00001039  00000+0 -27944-2 0  9998
2 56720  87.8955  70.7525 0001956  79.2805 280.8545 13.15542234 35967
ONEWEB-0686             
1 56721U 23068M   24037.58335648 -.00133770  00000+0 -29160+0 0  9997
2 56721  87.9510  40.2981 0014858  51.6110 166.8287 13.29811019 39024
